TIANMU-1 07             
1 57399U 23101A   26065.57454230  .00008352  00000+0  29795-3 0  9991
2 57399  97.2728 118.5929 0004609 142.4105 217.7458 15.29118809145964
STARLINK-30535          
1 58001U 23153L   26068.05566297 -.00000365  00000+0 -39061-5 0  9999
2 58001  42.9996  70.2617 0001859 273.2776  86.7863 15.26739724134805
